UNKNOWN                 
1 81775U          26093.54152607  .00009426  00000+0  28325-2 0  9990
2 81775  82.9175 131.5109 0014302 248.4298 111.5372 14.42535610641382
UNKNOWN                 
1 81779U          26093.23242914  .00002370  00000+0  16394+0 0  9992
2 81779  54.4618  43.4370 1439520 149.0612 220.3591  9.33761831490736
UNKNOWN                 
1 81792U          26093.54917711  .00003526  00000+0  12405-2 0  9991
2 81792  65.8326 204.5237 0894875 233.0940 118.4837 13.11448336 94698
UNKNOWN                 
1 81812U          26093.74288308  .00008019  00000+0  51107-1 0  9992
2 81812 103.7974  24.8195 0327235  42.9343 319.6768 12.38618266554422
UNKNOWN                 
1 81816U          26094.29911384  .00002023  00000+0  15247-2 0  9999
2 81816  66.2389  15.4195 0168716 183.1618 176.8406 13.89817222624986
UNKNOWN                 
1 81819U          26094.22617393  .00000987  00000+0  69734-2 0  9995
2 81819 102.1686 197.9690 0035449 256.9002 102.8108 12.47896904562040
UNKNOWN                 
1 81824U          26094.51216748  .00006429  00000+0  21745-2 0  9999
2 81824  65.8440  29.0544 0049020 280.9043  78.6538 14.36763553640782
UNKNOWN                 
1 81833U          26090.00495833  .00000416  00000+0  14820-2 0  9999
2 81833  90.2483   5.3018 0028252  97.0860 263.3472 12.93780027466515
UNKNOWN                 
1 81838U          26093.11241755  .00008715  00000+0  18607-2 0  9998
2 81838  67.7608 334.7650 0043546 264.8935 246.6464 14.58622573649566
UNKNOWN                 
1 81844U          26091.00430442  .00010097  00000+0  35095-2 0  9990
2 81844  82.9137 192.9270 0062018 176.4212 183.7434 14.34316426638547
UNKNOWN                 
1 81845U          26091.46525899  .00002479  00000+0  27296-3 0  9992
2 81845  97.6782 279.5934 0085490 304.3343  84.2359 14.85830675665816
UNKNOWN                 
1 81864U          26092.48608821  .00001380  00000+0  53620-3 0  9993
2 81864  65.6702 167.8953 0770112 325.4344  29.8826 13.32817256565590
UNKNOWN                 
1 81865U          26092.83956089  .00001426  00000+0  11602-2 0  9999
2 81865  82.8025 302.8940 0062888  48.4284 329.9135 13.88330954623965
UNKNOWN                 
1 81893U          26093.92029569  .00001395  00000+0  14617-2 0  9999
2 81893 100.0579  88.4950 0020689 345.5855  14.4701 13.76971177619515
UNKNOWN                 
1 81899U          26092.27172489  .00002319  00000+0  54362-2 0  9990
2 81899 102.4124 219.0034 0169446 339.1803  20.2460 13.20571109593579
UNKNOWN                 
1 81921U          26080.02815735  .00000337  00000+0  17021-3 0  9994
2 81921  65.7092 189.9770 0843178  71.9683 297.1320 13.15483007 38713
UNKNOWN                 
1 81946U          26092.56891992  .00000281  00000+0  10770-2 0  9993
2 81946  66.4176 299.4289 0678730 298.0528  83.8029 12.42654393561650
